ORBCOMM-X               
1 21576U 91050C   25296.42166034  .00000556  00000+0  17760-3 0  9995
2 21576  98.3294   0.3235 0004290 144.3913 215.7564 14.43373143800619
ORBCOMM FM01            
1 23545U 95017A   25296.48858961  .00009361  00000+0  93050-3 0  9992
2 23545  69.9601 113.8310 0001969 174.7379 185.3798 14.91947500631632
ORBCOMM FM02            
1 23546U 95017B   25296.94584245  .00012000  00000+0  11526-2 0  9996
2 23546  69.9614 131.5835 0003279 153.5578 206.5746 14.93214624631363
ORBCOMM FM08            
1 25112U 97084A   25296.82318546  .00002412  00000+0  70615-3 0  9990
2 25112  45.0116 110.1551 0006954 177.5923 182.4963 14.46303933459997
ORBCOMM FM10            
1 25113U 97084B   25296.82386171  .00002431  00000+0  71463-3 0  9993
2 25113  45.0127 112.7644 0005427 145.8792 214.2409 14.46080438635130
ORBCOMM FM11            
1 25114U 97084C   25296.78182723  .00002090  00000+0  62348-3 0  9999
2 25114  45.0113 113.8354 0006240 146.7707 213.3537 14.45813980460083
ORBCOMM FM12            
1 25115U 97084D   25296.81165864  .00002199  00000+0  65379-3 0  9998
2 25115  45.0120 113.4299 0005319 144.0436 216.0774 14.45835585459886
ORBCOMM FM09            
1 25116U 97084E   25296.78653997  .00002261  00000+0  67289-3 0  9996
2 25116  45.0125 114.6180 0006470 134.0498 226.0887 14.45695087460081
